[{"OBJECT_NAME":"STARLINK-5027","OBJECT_ID":"2023-013AR","EPOCH":"2026-03-09T23:36:38.846880","MEAN_MOTION":15.02533304,"ECCENTRICITY":0.00013528,"INCLINATION":43.0049,"RA_OF_ASC_NODE":311.7289,"ARG_OF_PERICENTER":271.1655,"MEAN_ANOMALY":88.9032,"EPHEMERIS_TYPE":0,"CLASSIFICATION_TYPE":"U","NORAD_CAT_ID":55370,"ELEMENT_SET_NO":999,"REV_AT_EPOCH":17160,"BSTAR":4.5036893e-5,"MEAN_MOTION_DOT":4.05e-6,"MEAN_MOTION_DDOT":0},{"OBJECT_NAME":"KORSAT-1","OBJECT_ID":"2024-066L","EPOCH":"2026-03-09T23:36:29.126880","MEAN_MOTION":14.99775855,"ECCENTRICITY":0.00103896,"INCLINATION":45.4118,"RA_OF_ASC_NODE":38.4763,"ARG_OF_PERICENTER":214.4294,"MEAN_ANOMALY":145.5913,"EPHEMERIS_TYPE":0,"CLASSIFICATION_TYPE":"U","NORAD_CAT_ID":59452,"ELEMENT_SET_NO":999,"REV_AT_EPOCH":10517,"BSTAR":0.00047970888,"MEAN_MOTION_DOT":5.797e-5,"MEAN_MOTION_DDOT":0}]
